GALAXY 37 (G-37)        
1 57493U 23112A   26199.59419865  .00000041  00000+0  00000+0 0  9994
2 57493   0.0164  59.8517 0002083  55.7407 267.7010  1.00271956 10855
LUDI TANCE-4 01A        
1 57624U 23120A   26199.42629802 -.00000185  00000+0  00000+0 0  9995
2 57624  15.0845 193.1922 0001578  12.4085 333.6523  1.00275474 10856
TJS-10                  
1 58204U 23169A   26199.82713059 -.00000257  00000+0  00000+0 0  9995
2 58204   2.6241  80.1128 0004093 113.4926 133.1890  1.00273021  9851
ZHONGXING-6E            
1 58253U 23172A   26200.07290416 -.00000367  00000+0  00000+0 0  9992
2 58253   0.0308  91.6743 0002891  19.5550 327.3908  1.00270422  9976
YAOGAN-41               
1 58582U 23197A   26199.71803039 -.00000367  00000+0  00000+0 0  9993
2 58582   3.0719 313.6471 0013950 200.6517 163.8357  1.00275672  9646
OVZON-3                 
1 58698U 24003A   26199.42031800  .00000044  00000+0  00000+0 0  9996
2 58698   0.0163 127.2521 0000040 123.2260 256.7399  1.00272850  7764
INSAT-3DS               
1 58990U 24033A   26199.90461339 -.00000162  00000+0  00000+0 0  9993
2 58990   0.0807 264.1306 0001209 221.7783 218.5102  1.00270805 47386
MERAH PUTIH 2           
1 58995U 24035A   26199.92905022  .00000000  00000+0  00000+0 0  9994
2 58995   0.0166  66.3808 0001237  47.1798 270.5811  1.00269937  8909
TJS-11                  
1 59020U 24037A   26199.83192948 -.00000368  00000+0  00000+0 0  9999
2 59020   4.1580 327.4843 0001946 153.5816 227.6369  1.00272441  8909
HULIANWAN GAOGUI-01 (H*)
1 59069U 24040A   26198.98746459  .00000147  00000+0  00000+0 0  9997
2 59069   0.0752 331.7087 0001858  71.6733 281.5272  1.00273287  7636
EUTELSAT 36D            
1 59346U 24059A   26199.93067205  .00000000  00000+0  00000+0 0  9994
2 59346   0.0220  65.6972 0000074   0.1382 241.8118  1.00268982  8462
PAKSAT-MM1              
1 59915U 24104A   26199.93180794  .00000148  00000+0  00000+0 0  9999
2 59915   0.0278 153.2378 0002132 305.7535 211.3627  1.00272964  7845
ASTRA 1P (SES-24)       
1 60086U 24115A   26199.69744731  .00000112  00000+0  00000+0 0  9993
2 60086   0.0667 329.2025 0000749 223.3508  14.2209  1.00266904  7516
GOES 19                 
1 60133U 24119A   26199.62891936 -.00000255  00000+0  00000+0 0  9992
2 60133   0.0180 140.2723 0000390  52.0769 255.2869  1.00270741  7279
ZHONGXING-3A            
1 60179U 24122A   26199.91926046 -.00000320  00000+0  00000+0 0  9992
2 60179   0.0292 137.1691 0001833  19.8104 212.2555  1.00273255  7626
TURKSAT 6A              
1 60233U 24127A   26199.93516771  .00000000  00000+0  00000+0 0  9994
2 60233   0.0173 184.3869 0003096 341.5555 149.4205  1.00271690  7336
HULIANWAN GAOGUI-02 (H*)
1 60327U 24135A   26200.15153278 -.00000179  00000+0  00000+0 0  9991
2 60327   0.0477 354.3317 0006169  15.7361 134.4616  1.00271644  7826
ZHONGXING-4A            
1 60606U 24151A   26199.80669727 -.00000368  00000+0  00000+0 0  9999
2 60606   1.2338 270.4513 0000142  31.8699  42.9023  1.00273744  7074
HULIANWAN GAOGUI-03 (H*)
1 61503U 24181A   26199.60758600 -.00000248  00000+0  00000+0 0  9993
2 61503   0.0522 356.0276 0001242 100.5593 341.4188  1.00270617  7142
DSN-3 (KIRAMEKI-3)      
1 61733U 24198A   26199.90253028 -.00000256  00000+0  00000+0 0  9992
2 61733   0.0518 249.4196 0001102 248.5197 267.7318  1.00271754  6233
KOREASAT 6A             
1 61910U 24206A   26199.89767332 -.00000368  00000+0  00000+0 0  9999
2 61910   0.0228 102.7078 0000990 335.2510 297.9003  1.00273613  6158
OPTUS-X (ADS-01)        
1 62006U 24212A   26199.72461709 -.00000150  00000+0  00000+0 0  9993
2 62006   0.0151  47.2028 0002334  90.9024 215.6786  1.00271986  6074
GSAT-N2 (GSAT-20)       
1 62028U 24214A   26199.95755508 -.00000025  00000+0  00000+0 0  9998
2 62028   0.0637 260.7980 0002683 148.5343 300.0675  1.00272059  6211
SXM-9                   
1 62259U 24234A   26199.57753144 -.00000212  00000+0  00000+0 0  9996
2 62259   0.0209 329.7241 0005056 352.2232  97.1686  1.00270106  5885
TJS-12                  
1 62374U 24246A   26199.72262375 -.00000238  00000+0  00000+0 0  9993
2 62374   0.6037 302.5437 0001868 100.7998 299.8082  1.00268453  5889
NUVIEW ALPHA            
1 62455U 24252B   26199.57753144 -.00000223  00000+0  00000+0 0  9996
2 62455   0.0389  14.5477 0001251  78.7556 327.8878  1.00273812  4134
AGILA                   
1 62456U 24252C   26199.72375043 -.00000188  00000+0  00000+0 0  9992
2 62456   0.0382 157.5756 0001418 322.3496 229.3122  1.00272291  5478
NUVIEW BRAVO            
1 62457U 24252D   26199.24944098 -.00000223  00000+0  00000+0 0  9992
2 62457   0.0687 163.4628 0001656 341.4509 157.8254  1.00271450  4108
THURAYA-4               
1 62483U 25001A   26199.93739670  .00000133  00000+0  00000+0 0  9997
2 62483   0.0236  77.1325 0000045 160.2248  81.1515  1.00273338  4498
SHIJIAN-25 (SJ-25)      
1 62485U 25002A   26199.82390307 -.00000358  00000+0  00000+0 0  9998
2 62485   5.1867  60.9651 0050886 176.5823 122.7745  1.00279843  5670
TJS-14                  
1 62804U 25017A   26199.91611162  .00000109  00000+0  00000+0 0  9997
2 62804   0.7125 298.0585 0001945 306.1194  40.7105  1.00269002  5582
SPAINSAT NG I           
1 62852U 25021A   26199.97375618  .00000145  00000+0  00000+0 0  9994
2 62852   0.0173  47.7888 0000103   8.3770 260.1327  1.00270786  4306
