OBJECT_NAME,OBJECT_ID,EPOCH,MEAN_MOTION,ECCENTRICITY,INCLINATION,RA_OF_ASC_NODE,ARG_OF_PERICENTER,MEAN_ANOMALY,EPHEMERIS_TYPE,CLASSIFICATION_TYPE,NORAD_CAT_ID,ELEMENT_SET_NO,REV_AT_EPOCH,BSTAR,MEAN_MOTION_DOT,MEAN_MOTION_DDOT
GALAXY 37 (G-37),2023-112A,2026-07-18T14:15:38.763360,1.00271956,.0002083,0.0164,59.8517,55.7407,267.7010,0,U,57493,999,1085,0,.41E-6,0
LUDI TANCE-4 01A,2023-120A,2026-07-18T10:13:52.148928,1.00275474,.00015789,15.0845,193.1922,12.4085,333.6523,0,U,57624,999,1085,0,-.185E-5,0
TJS-10,2023-169A,2026-07-18T19:51:04.082976,1.00273021,.0004093,2.6241,80.1128,113.4926,133.1890,0,U,58204,999,985,0,-.257E-5,0
ZHONGXING-6E,2023-172A,2026-07-19T01:44:58.919424,1.00270422,.0002891,0.0308,91.6743,19.5550,327.3908,0,U,58253,999,997,0,-.367E-5,0
YAOGAN-41,2023-197A,2026-07-18T17:13:57.825696,1.00275672,.00139508,3.0719,313.6471,200.6517,163.8357,0,U,58582,999,964,0,-.367E-5,0
OVZON-3,2024-003A,2026-07-18T10:05:15.475200,1.00272850,.00000403,0.0163,127.2521,123.2260,256.7399,0,U,58698,999,776,0,.44E-6,0
INSAT-3DS,2024-033A,2026-07-18T21:42:38.596896,1.00270805,.00012094,0.0807,264.1306,221.7783,218.5102,0,U,58990,999,4738,0,-.162E-5,0
MERAH PUTIH 2,2024-035A,2026-07-18T22:17:49.939008,1.00269937,.00012379,0.0166,66.3808,47.1798,270.5811,0,U,58995,999,890,0,0,0
TJS-11,2024-037A,2026-07-18T19:57:58.707072,1.00272441,.0001946,4.1580,327.4843,153.5816,227.6369,0,U,59020,999,890,0,-.368E-5,0
HULIANWAN GAOGUI-01 (HG-01),2024-040A,2026-07-17T23:41:56.940576,1.00273287,.00018582,0.0752,331.7087,71.6733,281.5272,0,U,59069,999,763,0,.147E-5,0
EUTELSAT 36D,2024-059A,2026-07-18T22:20:10.065120,1.00268982,.00000742,0.0220,65.6972,0.1382,241.8118,0,U,59346,999,846,0,0,0
PAKSAT-MM1,2024-104A,2026-07-18T22:21:48.206016,1.00272964,.00021321,0.0278,153.2378,305.7535,211.3627,0,U,59915,999,784,0,.148E-5,0
ASTRA 1P (SES-24),2024-115A,2026-07-18T16:44:19.447584,1.00266904,.00007494,0.0667,329.2025,223.3508,14.2209,0,U,60086,999,751,0,.112E-5,0
GOES 19,2024-119A,2026-07-18T15:05:38.632704,1.00270741,.00003904,0.0180,140.2723,52.0769,255.2869,0,U,60133,999,727,0,-.255E-5,0
ZHONGXING-3A,2024-122A,2026-07-18T22:03:44.103744,1.00273255,.0001833,0.0292,137.1691,19.8104,212.2555,0,U,60179,999,762,0,-.32E-5,0
TURKSAT 6A,2024-127A,2026-07-18T22:26:38.490144,1.00271690,.00030962,0.0173,184.3869,341.5555,149.4205,0,U,60233,999,733,0,0,0
HULIANWAN GAOGUI-02 (HG-02),2024-135A,2026-07-19T03:38:12.432192,1.00271644,.0006169,0.0477,354.3317,15.7361,134.4616,0,U,60327,999,782,0,-.179E-5,0
ZHONGXING-4A,2024-151A,2026-07-18T19:21:38.644128,1.00273744,.00001421,1.2338,270.4513,31.8699,42.9023,0,U,60606,999,707,0,-.368E-5,0
HULIANWAN GAOGUI-03 (HG-03),2024-181A,2026-07-18T14:34:55.430400,1.00270617,.0001242,0.0522,356.0276,100.5593,341.4188,0,U,61503,999,714,0,-.248E-5,0
DSN-3 (KIRAMEKI-3),2024-198A,2026-07-18T21:39:38.616192,1.00271754,.00011028,0.0518,249.4196,248.5197,267.7318,0,U,61733,999,623,0,-.256E-5,0
KOREASAT 6A,2024-206A,2026-07-18T21:32:38.974848,1.00273613,.00009906,0.0228,102.7078,335.2510,297.9003,0,U,61910,999,615,0,-.368E-5,0
OPTUS-X (ADS-01),2024-212A,2026-07-18T17:23:26.916576,1.00271986,.00023348,0.0151,47.2028,90.9024,215.6786,0,U,62006,999,607,0,-.15E-5,0
GSAT-N2 (GSAT-20),2024-214A,2026-07-18T22:58:52.758912,1.00272059,.00026836,0.0637,260.7980,148.5343,300.0675,0,U,62028,999,621,0,-.25E-6,0
SXM-9,2024-234A,2026-07-18T13:51:38.716416,1.00270106,.0005056,0.0209,329.7241,352.2232,97.1686,0,U,62259,999,588,0,-.212E-5,0
TJS-12,2024-246A,2026-07-18T17:20:34.692000,1.00268453,.0001868,0.6037,302.5437,100.7998,299.8082,0,U,62374,999,588,0,-.238E-5,0
NUVIEW ALPHA,2024-252B,2026-07-18T13:51:38.716416,1.00273812,.00012512,0.0389,14.5477,78.7556,327.8878,0,U,62455,999,413,0,-.223E-5,0
AGILA,2024-252C,2026-07-18T17:22:12.037152,1.00272291,.00014184,0.0382,157.5756,322.3496,229.3122,0,U,62456,999,547,0,-.188E-5,0
NUVIEW BRAVO,2024-252D,2026-07-18T05:59:11.700672,1.00271450,.00016567,0.0687,163.4628,341.4509,157.8254,0,U,62457,999,410,0,-.223E-5,0
THURAYA-4,2025-001A,2026-07-18T22:29:51.074880,1.00273338,.00000456,0.0236,77.1325,160.2248,81.1515,0,U,62483,999,449,0,.133E-5,0
SHIJIAN-25 (SJ-25),2025-002A,2026-07-18T19:46:25.225248,1.00279843,.0050886,5.1867,60.9651,176.5823,122.7745,0,U,62485,999,567,0,-.358E-5,0
TJS-14,2025-017A,2026-07-18T21:59:12.043968,1.00269002,.00019455,0.7125,298.0585,306.1194,40.7105,0,U,62804,999,558,0,.109E-5,0
SPAINSAT NG I,2025-021A,2026-07-18T23:22:12.533952,1.00270786,.00001037,0.0173,47.7888,8.3770,260.1327,0,U,62852,999,430,0,.145E-5,0
